#aV2009  3 11  0  0   .00000000      96 DD+AD WGS84 FIT  NGA
## 1522 259200.00000000   900.00000000 54901  .0000000000000
+   31     2  3  4  5  6  7  8  9 10 11 12 13 14 15 16 17 18
+         19 20 21 22 23 24 25 26 27 28 29 30 31 32  0  0  0
+          0  0  0  0  0  0  0  0  0  0  0  0  0  0  0  0  0
+          0  0  0  0  0  0  0  0  0  0  0  0  0  0  0  0  0
+          0  0  0  0  0  0  0  0  0  0  0  0  0  0  0  0  0
++         0  0  0  0  0  0  0  0  0  0  0  0  0  0  0  0  0
++         0  0  0  0  0  0  0  0  0  0  0  0  0  0  0  0  0
++         0  0  0  0  0  0  0  0  0  0  0  0  0  0  0  0  0
++         0  0  0  0  0  0  0  0  0  0  0  0  0  0  0  0  0
++         0  0  0  0  0  0  0  0  0  0  0  0  0  0  0  0  0
%c cc cc ccc ccc cccc cccc cccc cccc ccccc ccccc ccccc ccccc
%c cc cc ccc ccc cccc cccc cccc cccc ccccc ccccc ccccc ccccc
%f  0.0000000  0.000000000  0.00000000000  0.000000000000000
%f  0.0000000  0.000000000  0.00000000000  0.000000000000000
%i    0    0    0    0      0      0      0      0         0
%i    0    0    0    0      0      0      0      0         0
/*      NGA, ST. LOUIS,MO.                                  
/*   EPHEMERIS COMPUTED FROM  3 DAYS OF DATA                
/* CCCCCCCCCCCCCCCCCCCCCCCCCCCCCCCCCCCCCCCCCCCCCCCCCCCCCCCCC
/* CCCCCCCCCCCCCCCCCCCCCCCCCCCCCCCCCCCCCCCCCCCCCCCCCCCCCCCCC
*  2009  3 11  9  0   .00000000                                                 
P  2 -13865.697362  -9841.588545 -20602.996726    155.150935                    
V  2   4055.543839 -25577.674470   9144.042064      -.008454                    
P  3  24212.278659   8788.933768   6892.726510    363.984559                    
V  3   5957.149458   7695.678600 -29090.262874       .053080                    
P  4  -7267.350524 -21222.758068 -14060.822179     -8.211936                    
V  4   5362.484032 -17241.061164  23835.590829      -.144034                    
P  5 -20715.737835  15556.007204  -5845.918591     -6.369750                    
V  5  -7791.877678    387.601356  30303.170199      -.053624                    
P  6  23005.275814  12784.419292   3916.677993     26.334944                    
V  6   1826.760892   5644.222338 -30603.258858       .192541                    
P  7   7059.092169 -25029.192107  -5120.917910     21.835301                    
V  7   1743.212123   6803.223151 -31055.979261      -.004269                    
P  8   -603.857369 -24937.515017   8299.222322   -193.952676                    
V  8   4287.808018 -10080.434161 -30266.542045      -.014032                    
P  9 -13556.933109  13328.836162  17858.307486     44.785553                    
V  9    924.572639 -24033.839599  18099.770302       .020423                    
P 10 -24088.252298    285.853096 -11719.182161    -12.474870                    
V 10  12832.921065  -7113.053736 -26583.005659      -.006391                    
P 11  13040.357709 -14904.150091  17348.022809      5.009228                    
V 11   4514.560923  22571.373851  16169.435705      -.011818                    
P 12 -23257.957889  12104.677320  -3771.649160   -307.511094                    
V 12  -5554.906170   -708.008708  31462.685648       .042018                    
P 13   3768.126070 -15253.140985 -21540.617703    291.166911                    
V 13  20599.921457  17405.576131  -8760.983015       .011776                    
P 14  13755.855037  20388.444336  10283.228334   -142.627069                    
V 14 -10831.411046  -7021.836239  28639.775079       .055271                    
P 15 -21379.349034  -2382.362191  15641.114022   -267.420168                    
V 15 -14572.000052 -13554.428651 -21964.019546      -.048731                    
P 16  20477.012478   4321.847576 -16429.620961     68.487904                    
V 16 -18939.174573   8912.338062 -20952.345927      -.029492                    
P 17 -12143.021780 -20526.688923  11944.704573     49.771140                    
V 17  13080.047758   7690.097104  26457.009928       .014000                    
P 18  -6952.839338  17273.740191  19017.432691    -75.868265                    
V 18 -23012.793036   6635.291422 -14968.492720       .035033                    
P 19  20076.758397   1555.516880  17501.890613     30.875144                    
V 19  15277.875508  15931.113957 -18776.658987      -.007678                    
P 20  21601.810732 -14185.022879  -6150.454973     88.495245                    
V 20   8345.130714    -37.360395  30067.815190      -.010761                    
P 21  -4445.799199  25828.052160   -432.861355     25.048425                    
V 21  -4022.318586  -1491.281269 -31558.581542      -.019163                    
P 22   4878.848998  14950.206157  21556.873574    203.676572                    
V 22 -25500.101222   9141.855193   -634.558837      -.005999                    
P 23  13799.261055  -7766.632977 -21413.907206    388.183649                    
V 23  20935.549406  17050.674355   7058.842585       .004942                    
P 24 -13110.823294  19165.611307 -12997.716199    172.121483                    
V 24    818.247109 -16786.850377 -25054.249725       .031965                    
P 25   8989.254817 -22022.203378 -11663.455782    293.282460                    
V 25   1458.800477  15356.975599 -26861.006912       .233896                    
P 26 -21744.239853  -7456.822677  13254.951708     50.242672                    
V 26 -12379.723758 -12355.191334 -25695.040296       .025034                    
P 27 -12991.095045 -12077.171738  20444.924759     31.296720                    
V 27   2809.439805 -24287.991470 -13061.004650       .031345                    
P 28  -2499.596569 -15284.181535  21977.139872    -23.645026                    
V 28  25377.185039  -8967.956941  -3735.102051      -.001442                    
P 29  -5182.023186  14954.038463 -21230.823857     -2.429983                    
V 29 -21401.561349 -16794.723462  -6537.566431       .037932                    
P 30 -14454.359400  17557.038983 -14010.914839    131.639740                    
V 30 -16672.927409   4998.027644  24171.188693       .024813                    
P 31   8112.189344  19617.500633 -15662.761069    -54.336476                    
V 31  -4609.282326  19868.781330  22327.172944      -.012661                    
P 32  25518.668228  -6774.244999   1519.513775    287.641967                    
V 32   -541.523036   3188.360378  31926.481154      -.038868                    
EOF
